NORAD_CAT_ID,OBJECT_NAME,OBJECT_TYPE,EPOCH,MEAN_MOTION,ECCENTRICITY,INCLINATION,RA_OF_ASC_NODE,ARG_OF_PERICENTER,MEAN_ANOMALY,BSTAR,MEAN_MOTION_DOT,MEAN_MOTION_DDOT,TLE_LINE0,TLE_LINE1,TLE_LINE2,SEMIMAJOR_AXIS,PERIOD,APOGEE,PERIGEE,DECAYED
50174.0,STARLINK-3292,PAYLOAD,2023-02-11 01:08:31,15.0885378,0.0001261,53.2144,248.8611,78.7645,281.3489,0.0003617,5.475e-05,0.0,0 STARLINK-3292,1 50174U 21125U   23042.04758883  .00005475  00000-0  36170-3 0  9993,2 50174  53.2144 248.8611 0001261  78.7645 281.3489 15.08853780 66636,6917.838,95.437,540.576,538.831,0.0
50174.0,STARLINK-3292,PAYLOAD,2023-02-11 20:13:09,15.08847914,0.0001197,53.2141,245.291,82.221,277.8918,0.00051909,7.985e-05,0.0,0 STARLINK-3292,1 50174U 21125U   23042.84247216  .00007985  00000-0  51909-3 0  9999,2 50174  53.2141 245.2910 0001197  82.2210 277.8918 15.08847914 67283,6917.856,95.437,540.549,538.893,0.0
50174.0,STARLINK-3292,PAYLOAD,2023-02-11 21:48:32,15.08849606,0.0001216,53.2142,244.9935,80.7025,279.4104,0.0009268,0.00014497,0.0,0 STARLINK-3292,1 50174U 21125U   23042.90871310  .00014497  00000-0  92680-3 0  9991,2 50174  53.2142 244.9935 0001216  80.7025 279.4104 15.08849606 66763,6917.851,95.437,540.557,538.875,0.0
50174.0,STARLINK-3292,PAYLOAD,2023-02-12 13:42:24,15.08846077,0.0001322,53.2144,242.0208,92.6148,267.4996,0.00081629,0.00012729,0.0,0 STARLINK-3292,1 50174U 21125U   23043.57111474  .00012729  00000-0  81629-3 0  9990,2 50174  53.2144 242.0208 0001322  92.6148 267.4996 15.08846077 66869,6917.862,95.437,540.641,538.812,0.0
50174.0,STARLINK-3292,PAYLOAD,2023-02-13 05:36:15,15.08833899,0.0001515,53.2143,239.0458,87.0607,273.0558,0.00041358,6.299e-05,0.0,0 STARLINK-3292,1 50174U 21125U   23044.23351391  .00006299  00000-0  41358-3 0  9998,2 50174  53.2143 239.0458 0001515  87.0607 273.0558 15.08833899 66969,6917.899,95.438,540.812,538.716,0.0
50174.0,STARLINK-3292,PAYLOAD,2023-02-13 13:33:11,15.08839181,0.0001114,53.2139,237.5591,91.8295,268.2824,0.00014772,2.064e-05,0.0,0 STARLINK-3292,1 50174U 21125U   23044.56471658  .00002064  00000-0  14772-3 0  9999,2 50174  53.2139 237.5591 0001114  91.8295 268.2824 15.08839181 67543,6917.883,95.438,540.519,538.977,0.0
50174.0,STARLINK-3292,PAYLOAD,2023-02-14 05:27:02,15.08842629,0.0001283,53.2135,234.5853,89.1928,270.9211,0.00028176,4.199e-05,0.0,0 STARLINK-3292,1 50174U 21125U   23045.22711539  .00004199  00000-0  28176-3 0  9992,2 50174  53.2135 234.5853 0001283  89.1928 270.9211 15.08842629 67649,6917.872,95.437,540.625,538.85,0.0
50174.0,STARLINK-3292,PAYLOAD,2023-02-15 05:17:49,15.08840236,0.0001263,53.2122,230.1247,89.6196,270.4941,0.00010589,1.398e-05,0.0,0 STARLINK-3292,1 50174U 21125U   23046.22071652  .00001398  00000-0  10589-3 0  9995,2 50174  53.2122 230.1247 0001263  89.6196 270.4941 15.08840236 67269,6917.88,95.438,540.618,538.871,0.0
50174.0,STARLINK-3292,PAYLOAD,2023-02-15 13:14:45,15.08840736,0.0001042,53.2141,228.639,93.9635,266.1476,0.00010958,1.457e-05,0.0,0 STARLINK-3292,1 50174U 21125U   23046.55191632  .00001457  00000-0  10958-3 0  9998,2 50174  53.2141 228.6390 0001042  93.9635 266.1476 15.08840736 67846,6917.878,95.438,540.464,539.022,0.0
50174.0,STARLINK-3292,PAYLOAD,2023-02-15 21:11:41,15.0884926,0.0001538,53.2125,227.1499,87.6453,272.4715,0.00026112,3.871e-05,0.0,0 STARLINK-3292,1 50174U 21125U   23046.88311436  .00003871  00000-0  26112-3 0  9991,2 50174  53.2125 227.1499 0001538  87.6453 272.4715 15.08849260 67892,6917.852,95.437,540.781,538.653,0.0
50174.0,STARLINK-3292,PAYLOAD,2023-02-16 11:30:09,15.08842775,0.0001526,53.2112,224.4742,82.2588,277.8578,0.00016864,2.397e-05,0.0,0 STARLINK-3292,1 50174U 21125U   23047.47927674  .00002397  00000-0  16864-3 0  9999,2 50174  53.2112 224.4742 0001526  82.2588 277.8578 15.08842775 67458,6917.872,95.437,540.793,538.681,0.0
50174.0,STARLINK-3292,PAYLOAD,2023-02-16 21:02:28,15.0884506,0.000111,53.2127,222.6903,81.901,278.2108,0.00022549,3.303e-05,0.0,0 STARLINK-3292,1 50174U 21125U   23047.87671456  .00003303  00000-0  22549-3 0  9992,2 50174  53.2127 222.6903 0001110  81.9010 278.2108 15.08845060 68048,6917.865,95.437,540.498,538.962,0.0
50174.0,STARLINK-3292,PAYLOAD,2023-02-17 11:20:56,15.08832853,0.0001299,53.2122,220.0127,92.3688,267.7452,-5.6263e-05,-1.183e-05,0.0,0 STARLINK-3292,1 50174U 21125U   23048.47288054 -.00001183  00000-0 -56263-4 0  9994,2 50174  53.2122 220.0127 0001299  92.3688 267.7452 15.08832853 67600,6917.902,95.438,540.666,538.869,0.0
50174.0,STARLINK-3292,PAYLOAD,2023-02-17 20:53:15,15.08837365,0.0001135,53.2131,218.2295,84.3864,275.7258,6.1491e-05,6.91e-06,0.0,0 STARLINK-3292,1 50174U 21125U   23048.87032025  .00000691  00000-0  61491-4 0  9993,2 50174  53.2131 218.2295 0001135  84.3864 275.7258 15.08837365 68192,6917.888,95.438,540.539,538.968,0.0
50174.0,STARLINK-3292,PAYLOAD,2023-02-18 04:50:11,15.08835911,0.0001285,53.2131,216.7436,82.2133,277.9005,0.00010919,1.45e-05,0.0,0 STARLINK-3292,1 50174U 21125U   23049.20152315  .00001450  00000-0  10919-3 0  9998,2 50174  53.2131 216.7436 0001285  82.2133 277.9005 15.08835911 68249,6917.893,95.438,540.647,538.869,0.0
50174.0,STARLINK-3292,PAYLOAD,2023-02-18 20:44:02,15.08846467,0.000118,53.2141,213.7689,85.6544,274.4582,0.00038903,5.91e-05,0.0,0 STARLINK-3292,1 50174U 21125U   23049.86392158  .00005910  00000-0  38903-3 0  9999,2 50174  53.2141 213.7689 0001180  85.6544 274.4582 15.08846467 67816,6917.861,95.437,540.542,538.909,0.0
50174.0,STARLINK-3292,PAYLOAD,2023-02-19 14:13:17,15.08843846,0.0001253,53.2143,210.4977,85.2573,274.8562,0.0002849,4.25e-05,0.0,0 STARLINK-3292,1 50174U 21125U   23050.59256397  .00004250  00000-0  28490-3 0  9991,2 50174  53.2143 210.4977 0001253  85.2573 274.8562 15.08843846 68452,6917.869,95.437,540.6,538.867,0.0
50174.0,STARLINK-3292,PAYLOAD,2023-02-19 15:48:40,15.08845872,0.0001231,53.2143,210.2004,85.5316,274.5817,0.00033627,5.069e-05,0.0,0 STARLINK-3292,1 50174U 21125U   23050.65880339  .00005069  00000-0  33627-3 0  9994,2 50174  53.2143 210.2004 0001231  85.5316 274.5817 15.08845872 67938,6917.862,95.437,540.579,538.876,0.0
50174.0,STARLINK-3292,PAYLOAD,2023-02-20 14:04:04,15.08847762,0.0001108,53.2147,206.037,84.3679,275.7439,0.00039758,6.047e-05,0.0,0 STARLINK-3292,1 50174U 21125U   23051.58616175  .00006047  00000-0  39758-3 0  9990,2 50174  53.2147 206.0370 0001108  84.3679 275.7439 15.08847762 68072,6917.857,95.437,540.488,538.955,0.0
50174.0,STARLINK-3292,PAYLOAD,2023-02-21 10:44:05,15.0884307,8.53e-05,53.215,202.1715,66.1115,293.9967,0.0005214,8.021e-05,0.0,0 STARLINK-3292,1 50174U 21125U   23052.44728096  .00008021  00000-0  52140-3 0  9996,2 50174  53.2150 202.1715 0000853  66.1115 293.9967 15.08843070 68206,6917.871,95.437,540.326,539.146,0.0
50174.0,STARLINK-3292,PAYLOAD,2023-02-21 17:05:37,15.0885861,0.000118,53.215,200.9823,92.6324,267.4804,0.0012606,0.00019842,0.0,0 STARLINK-3292,1 50174U 21125U   23052.71223799  .00019842  00000-0  12606-2 0  9991,2 50174  53.2150 200.9823 0001180  92.6324 267.4804 15.08858610 68248,6917.824,95.436,540.505,538.872,0.0
50174.0,STARLINK-3292,PAYLOAD,2023-02-21 20:16:23,15.08868628,0.0001061,53.2149,200.3868,86.3739,273.7375,0.0012609,0.00019852,0.0,0 STARLINK-3292,1 50174U 21125U   23052.84471523  .00019852  00000-0  12609-2 0  9999,2 50174  53.2149 200.3868 0001061  86.3739 273.7375 15.08868628 68790,6917.793,95.436,540.392,538.924,0.0
50174.0,STARLINK-3292,PAYLOAD,2023-02-22 02:37:56,15.08838542,0.000272,53.2152,199.1969,92.8386,267.2918,0.00051614,7.936e-05,0.0,0 STARLINK-3292,1 50174U 21125U   23053.10968447  .00007936  00000-0  51614-3 0  9995,2 50174  53.2152 199.1969 0002720  92.8386 267.2918 15.08838542 68304,6917.885,95.438,541.632,537.868,0.0
50174.0,STARLINK-3292,PAYLOAD,2023-02-22 18:31:47,15.08844489,0.0001159,53.2147,196.2244,94.5104,265.602,0.00078222,0.00012185,0.0,0 STARLINK-3292,1 50174U 21125U   23053.77207810  .00012185  00000-0  78222-3 0  9994,2 50174  53.2147 196.2244 0001159  94.5104 265.6020 15.08844489 68936,6917.867,95.437,540.533,538.93,0.0
50174.0,STARLINK-3292,PAYLOAD,2023-02-23 02:28:43,15.08833269,6.81e-05,53.2148,194.737,96.8792,263.2278,-3.1018e-05,-7.81e-06,0.0,0 STARLINK-3292,1 50174U 21125U   23054.10327906 -.00000781  00000-0 -31018-4 0  9995,2 50174  53.2148 194.7370 0000681  96.8792 263.2278 15.08833269 68457,6917.901,95.438,540.237,539.295,0.0
50174.0,STARLINK-3292,PAYLOAD,2023-02-23 08:50:16,15.08834651,8.38e-05,53.2144,193.5476,92.0385,268.0703,0.00026918,3.998e-05,0.0,0 STARLINK-3292,1 50174U 21125U   23054.36824199  .00003998  00000-0  26918-3 0  9992,2 50174  53.2144 193.5476 0000838  92.0385 268.0703 15.08834651 69023,6917.897,95.438,540.341,539.182,0.0
50174.0,STARLINK-3292,PAYLOAD,2023-02-23 16:47:11,15.08851564,0.0001268,53.214,192.0614,82.9453,277.1683,0.0016319,0.00025787,0.0,0 STARLINK-3292,1 50174U 21125U   23054.69944178  .00025787  00000-0  16319-2 0  9991,2 50174  53.2140 192.0614 0001268  82.9453 277.1683 15.08851564 68545,6917.845,95.437,540.587,538.833,0.0
50174.0,STARLINK-3292,PAYLOAD,2023-02-24 02:19:30,15.08838689,5.38e-05,53.2149,190.2768,123.605,236.4994,0.00057679,8.903e-05,0.0,0 STARLINK-3292,1 50174U 21125U   23055.09688109  .00008903  00000-0  57679-3 0  9991,2 50174  53.2149 190.2768 0000538 123.6050 236.4994 15.08838689 68602,6917.884,95.438,540.122,539.377,0.0
50174.0,STARLINK-3292,PAYLOAD,2023-02-24 18:13:22,15.08864315,0.0001256,53.2152,187.3049,65.4322,294.6801,0.0025817,0.00041067,0.0,0 STARLINK-3292,1 50174U 21125U   23055.75928342  .00041067  00000-0  25817-2 0  9996,2 50174  53.2152 187.3049 0001256  65.4322 294.6801 15.08864315 69236,6917.806,95.436,540.54,538.802,0.0
50174.0,STARLINK-3292,PAYLOAD,2023-02-25 02:10:17,15.08873682,7.46e-05,53.2152,185.8168,121.9263,238.1802,0.0016395,0.00025925,0.0,0 STARLINK-3292,1 50174U 21125U   23056.09047545  .00025925  00000-0  16395-2 0  9997,2 50174  53.2152 185.8168 0000746 121.9263 238.1802 15.08873682 68753,6917.777,95.435,540.159,539.126,0.0
